[{"OBJECT_NAME":"STARLINK-32631","OBJECT_ID":"2024-231T","EPOCH":"2026-03-09T15:26:14.296992","MEAN_MOTION":15.30195965,"ECCENTRICITY":0.000128,"INCLINATION":53.1611,"RA_OF_ASC_NODE":206.8965,"ARG_OF_PERICENTER":84.9118,"MEAN_ANOMALY":275.2028,"EPHEMERIS_TYPE":0,"CLASSIFICATION_TYPE":"U","NORAD_CAT_ID":62235,"ELEMENT_SET_NO":999,"REV_AT_EPOCH":7193,"BSTAR":0.0012968,"MEAN_MOTION_DOT":0.0003824,"MEAN_MOTION_DDOT":0},{"OBJECT_NAME":"GEOSCAN 3 (RS92S3)","OBJECT_ID":"2025-155T","EPOCH":"2026-03-09T22:52:10.587648","MEAN_MOTION":15.31696739,"ECCENTRICITY":0.00068078,"INCLINATION":97.4455,"RA_OF_ASC_NODE":37.9971,"ARG_OF_PERICENTER":154.1387,"MEAN_ANOMALY":206.0196,"EPHEMERIS_TYPE":0,"CLASSIFICATION_TYPE":"U","NORAD_CAT_ID":64893,"ELEMENT_SET_NO":999,"REV_AT_EPOCH":6564,"BSTAR":0.00078414081,"MEAN_MOTION_DOT":0.00023985,"MEAN_MOTION_DDOT":0}]
